STARLINK-30940          
1 58409U 23180H   26068.83408657 -.00002763  00000+0 -90928-4 0  9994
2 58409  43.0025 266.6490 0002281 277.2266  82.8327 15.27570165129359
FLOCK 4G-27             
1 62641U 25009AJ  26068.75406453  .00012587  00000+0  47455-3 0  9991
2 62641  97.3976 150.8631 0000756 322.4974  37.6212 15.27199247 63710
